{
  "type": "FeatureCollection",
  "features": [
    {
      "type": "Feature",
      "properties": {
        "norad_id": 35033,
        "name": "COSMOS 2251 DEB",
        "group": "cosmos-2251-debris",
        "lat": -40.04855392205507,
        "lon": 14.33539488081383,
        "alt_km": 724.4521444509446,
        "timestamp": "2025-12-10T16:57:12.034790+00:00",
        "meta_object_name": "COSMOS 2251 DEB",
        "meta_object_id": "1993-036AGW",
        "meta_epoch": "2025-12-09T20:04:28.770240",
        "meta_mean_motion": 14.50906436,
        "meta_eccentricity": 0.00144326,
        "meta_inclination": 74.0258,
        "meta_ra_of_asc_node": 182.0397,
        "meta_arg_of_pericenter": 288.5729,
        "meta_mean_anomaly": 71.3864,
        "meta_ephemeris_type": 0,
        "meta_classification_type": "U",
        "meta_norad_cat_id": 35033,
        "meta_element_set_no": 999,
        "meta_rev_at_epoch": 65885,
        "meta_bstar": 0.0010175317,
        "meta_mean_motion_dot": 3.996e-05,
        "meta_mean_motion_ddot": 0,
        "tle_line1": "1 35033U 93036AGW 25343.83644410  .00003996  00000+0  10175-2 0  9994",
        "tle_line2": "2 35033  74.0258 182.0397 0014432 288.5729  71.3864 14.50906436658856"
      },
      "geometry": {
        "type": "Point",
        "coordinates": [
          14.33539488081383,
          -40.04855392205507
        ]
      }
    },
    {
      "type": "Feature",
      "properties": {
        "norad_id": 35038,
        "name": "COSMOS 2251 DEB",
        "group": "cosmos-2251-debris",
        "lat": 15.466072526355424,
        "lon": 50.75872628174391,
        "alt_km": 729.2131467803265,
        "timestamp": "2025-12-10T16:57:12.034800+00:00",
        "meta_object_name": "COSMOS 2251 DEB",
        "meta_object_id": "1993-036AHB",
        "meta_epoch": "2025-12-09T21:12:51.178752",
        "meta_mean_motion": 14.25117767,
        "meta_eccentricity": 0.01138214,
        "meta_inclination": 74.1071,
        "meta_ra_of_asc_node": 47.7141,
        "meta_arg_of_pericenter": 32.4196,
        "meta_mean_anomaly": 86.2003,
        "meta_ephemeris_type": 0,
        "meta_classification_type": "U",
        "meta_norad_cat_id": 35038,
        "meta_element_set_no": 999,
        "meta_rev_at_epoch": 85528,
        "meta_bstar": 0.0019860831,
        "meta_mean_motion_dot": 4.964e-05,
        "meta_mean_motion_ddot": 0,
        "tle_line1": "1 35038U 93036AHB 25343.88392568  .00004964  00000+0  19861-2 0  9995",
        "tle_line2": "2 35038  74.1071  47.7141 0113821  32.4196  86.2003 14.25117767855284"
      },
      "geometry": {
        "type": "Point",
        "coordinates": [
          50.75872628174391,
          15.466072526355424
        ]
      }
    },
    {
      "type": "Feature",
      "properties": {
        "norad_id": 35043,
        "name": "COSMOS 2251 DEB",
        "group": "cosmos-2251-debris",
        "lat": -16.151742647084003,
        "lon": -125.63451645279146,
        "alt_km": 612.1401188314094,
        "timestamp": "2025-12-10T16:57:12.034809+00:00",
        "meta_object_name": "COSMOS 2251 DEB",
        "meta_object_id": "1993-036AHG",
        "meta_epoch": "2025-12-10T11:10:42.887424",
        "meta_mean_motion": 14.76758408,
        "meta_eccentricity": 0.009686,
        "meta_inclination": 73.9504,
        "meta_ra_of_asc_node": 50.0569,
        "meta_arg_of_pericenter": 259.781,
        "meta_mean_anomaly": 99.243,
        "meta_ephemeris_type": 0,
        "meta_classification_type": "U",
        "meta_norad_cat_id": 35043,
        "meta_element_set_no": 999,
        "meta_rev_at_epoch": 67385,
        "meta_bstar": 0.0060387,
        "meta_mean_motion_dot": 0.00045991,
        "meta_mean_motion_ddot": 0,
        "tle_line1": "1 35043U 93036AHG 25344.46577416  .00045991  00000+0  60387-2 0  9997",
        "tle_line2": "2 35043  73.9504  50.0569 0096860 259.7810  99.2430 14.76758408673857"
      },
      "geometry": {
        "type": "Point",
        "coordinates": [
          -125.63451645279146,
          -16.151742647084003
        ]
      }
    },
    {
      "type": "Feature",
      "properties": {
        "norad_id": 35045,
        "name": "COSMOS 2251 DEB",
        "group": "cosmos-2251-debris",
        "lat": -39.59769687540833,
        "lon": -109.71357500602178,
        "alt_km": 866.3532979158399,
        "timestamp": "2025-12-10T16:57:12.034819+00:00",
        "meta_object_name": "COSMOS 2251 DEB",
        "meta_object_id": "1993-036AHJ",
        "meta_epoch": "2025-12-06T22:43:41.331360",
        "meta_mean_motion": 14.0036659,
        "meta_eccentricity": 0.0183364,
        "meta_inclination": 73.7196,
        "meta_ra_of_asc_node": 62.9336,
        "meta_arg_of_pericenter": 305.7539,
        "meta_mean_anomaly": 52.6659,
        "meta_ephemeris_type": 0,
        "meta_classification_type": "U",
        "meta_norad_cat_id": 35045,
        "meta_element_set_no": 999,
        "meta_rev_at_epoch": 84562,
        "meta_bstar": 0.0010227315,
        "meta_mean_motion_dot": 1.724e-05,
        "meta_mean_motion_ddot": 0,
        "tle_line1": "1 35045U 93036AHJ 25340.94700615  .00001724  00000+0  10227-2 0  9991",
        "tle_line2": "2 35045  73.7196  62.9336 0183364 305.7539  52.6659 14.00366590845620"
      },
      "geometry": {
        "type": "Point",
        "coordinates": [
          -109.71357500602178,
          -39.59769687540833
        ]
      }
    },
    {
      "type": "Feature",
      "properties": {
        "norad_id": 35060,
        "name": "COSMOS 2251 DEB",
        "group": "cosmos-2251-debris",
        "lat": -8.548289624992842,
        "lon": 70.56786471999047,
        "alt_km": 767.3473090137559,
        "timestamp": "2025-12-10T16:57:12.034829+00:00",
        "meta_object_name": "COSMOS 2251 DEB",
        "meta_object_id": "1993-036AHP",
        "meta_epoch": "2025-11-28T02:37:07.839264",
        "meta_mean_motion": 14.41547968,
        "meta_eccentricity": 0.00179641,
        "meta_inclination": 74.0363,
        "meta_ra_of_asc_node": 271.4275,
        "meta_arg_of_pericenter": 359.5881,
        "meta_mean_anomaly": 0.5257,
        "meta_ephemeris_type": 0,
        "meta_classification_type": "U",
        "meta_norad_cat_id": 35060,
        "meta_element_set_no": 999,
        "meta_rev_at_epoch": 87031,
        "meta_bstar": 0.0004076845,
        "meta_mean_motion_dot": 1.301e-05,
        "meta_mean_motion_ddot": 0,
        "tle_line1": "1 35060U 93036AHP 25332.10911851  .00001301  00000+0  40768-3 0  9998",
        "tle_line2": "2 35060  74.0363 271.4275 0017964 359.5881   0.5257 14.41547968870310"
      },
      "geometry": {
        "type": "Point",
        "coordinates": [
          70.56786471999047,
          -8.548289624992842
        ]
      }
    },
    {
      "type": "Feature",
      "properties": {
        "norad_id": 35061,
        "name": "COSMOS 2251 DEB",
        "group": "cosmos-2251-debris",
        "lat": -57.8032778211279,
        "lon": 156.67146815845166,
        "alt_km": 702.3614587091242,
        "timestamp": "2025-12-10T16:57:12.034839+00:00",
        "meta_object_name": "COSMOS 2251 DEB",
        "meta_object_id": "1993-036AHQ",
        "meta_epoch": "2025-12-10T04:24:26.439840",
        "meta_mean_motion": 14.67788932,
        "meta_eccentricity": 0.00390241,
        "meta_inclination": 74.0462,
        "meta_ra_of_asc_node": 310.6593,
        "meta_arg_of_pericenter": 62.2963,
        "meta_mean_anomaly": 298.2158,
        "meta_ephemeris_type": 0,
        "meta_classification_type": "U",
        "meta_norad_cat_id": 35061,
        "meta_element_set_no": 999,
        "meta_rev_at_epoch": 88537,
        "meta_bstar": 0.0011530424,
        "meta_mean_motion_dot": 6.628e-05,
        "meta_mean_motion_ddot": 0,
        "tle_line1": "1 35061U 93036AHQ 25344.18363935  .00006628  00000+0  11530-2 0  9995",
        "tle_line2": "2 35061  74.0462 310.6593 0039024  62.2963 298.2158 14.67788932885374"
      },
      "geometry": {
        "type": "Point",
        "coordinates": [
          156.67146815845166,
          -57.8032778211279
        ]
      }
    },
    {
      "type": "Feature",
      "properties": {
        "norad_id": 35062,
        "name": "COSMOS 2251 DEB",
        "group": "cosmos-2251-debris",
        "lat": -73.71179203058348,
        "lon": -5.455712400180533,
        "alt_km": 912.8487765362788,
        "timestamp": "2025-12-10T16:57:12.034849+00:00",
        "meta_object_name": "COSMOS 2251 DEB",
        "meta_object_id": "1993-036AHR",
        "meta_epoch": "2025-12-09T14:24:07.379424",
        "meta_mean_motion": 14.22893072,
        "meta_eccentricity": 0.012786,
        "meta_inclination": 74.0789,
        "meta_ra_of_asc_node": 98.8746,
        "meta_arg_of_pericenter": 99.4973,
        "meta_mean_anomaly": 262.0651,
        "meta_ephemeris_type": 0,
        "meta_classification_type": "U",
        "meta_norad_cat_id": 35062,
        "meta_element_set_no": 999,
        "meta_rev_at_epoch": 85454,
        "meta_bstar": 0.0026817,
        "meta_mean_motion_dot": 6.536e-05,
        "meta_mean_motion_ddot": 0,
        "tle_line1": "1 35062U 93036AHR 25343.60008541  .00006536  00000+0  26817-2 0  9993",
        "tle_line2": "2 35062  74.0789  98.8746 0127860  99.4973 262.0651 14.22893072854546"
      },
      "geometry": {
        "type": "Point",
        "coordinates": [
          -5.455712400180533,
          -73.71179203058348
        ]
      }
    }
  ]
}